{
  "type": "FeatureCollection",
  "features": [
    {
      "type": "Feature",
      "properties": {
        "norad_id": 66618,
        "name": "STARLINK-35970",
        "group": "last-30-days",
        "lat": -49.361633509651924,
        "lon": 34.28081074116395,
        "alt_km": 423.5942893530437,
        "timestamp": "2025-12-19T18:58:40.326298+00:00",
        "meta_object_name": "STARLINK-35970",
        "meta_object_id": "2025-271B",
        "meta_epoch": "2025-12-18T21:46:16.468320",
        "meta_mean_motion": 15.49335101,
        "meta_eccentricity": 7.172e-05,
        "meta_inclination": 53.159,
        "meta_ra_of_asc_node": 157.6323,
        "meta_arg_of_pericenter": 82.1987,
        "meta_mean_anomaly": 277.9103,
        "meta_ephemeris_type": 0,
        "meta_classification_type": "U",
        "meta_norad_cat_id": 66618,
        "meta_element_set_no": 999,
        "meta_rev_at_epoch": 516,
        "meta_bstar": 0.00091874022,
        "meta_mean_motion_dot": 0.0005103,
        "meta_mean_motion_ddot": 0,
        "tle_line1": "1 66618U 25271B   25352.90713505  .00051030  00000+0  91874-3 0  9991",
        "tle_line2": "2 66618  53.1590 157.6323 0000717  82.1987 277.9103 15.49335101  5162"
      },
      "geometry": {
        "type": "Point",
        "coordinates": [
          34.28081074116395,
          -49.361633509651924
        ]
      }
    },
    {
      "type": "Feature",
      "properties": {
        "norad_id": 66619,
        "name": "STARLINK-35951",
        "group": "last-30-days",
        "lat": -20.393240000828253,
        "lon": -10.314526388275073,
        "alt_km": 421.89979822957866,
        "timestamp": "2025-12-19T18:58:40.326309+00:00",
        "meta_object_name": "STARLINK-35951",
        "meta_object_id": "2025-271C",
        "meta_epoch": "2025-12-19T04:09:37.126368",
        "meta_mean_motion": 15.49333473,
        "meta_eccentricity": 9.562e-05,
        "meta_inclination": 53.1599,
        "meta_ra_of_asc_node": 156.4548,
        "meta_arg_of_pericenter": 94.0612,
        "meta_mean_anomaly": 266.0506,
        "meta_ephemeris_type": 0,
        "meta_classification_type": "U",
        "meta_norad_cat_id": 66619,
        "meta_element_set_no": 999,
        "meta_rev_at_epoch": 520,
        "meta_bstar": 0.00056183795,
        "meta_mean_motion_dot": 0.00030949,
        "meta_mean_motion_ddot": 0,
        "tle_line1": "1 66619U 25271C   25353.17334637  .00030949  00000+0  56184-3 0  9998",
        "tle_line2": "2 66619  53.1599 156.4548 0000956  94.0612 266.0506 15.49333473  5201"
      },
      "geometry": {
        "type": "Point",
        "coordinates": [
          -10.314526388275073,
          -20.393240000828253
        ]
      }
    },
    {
      "type": "Feature",
      "properties": {
        "norad_id": 66620,
        "name": "STARLINK-35936",
        "group": "last-30-days",
        "lat": -16.032665586359716,
        "lon": -14.043635689637055,
        "alt_km": 421.62256411596445,
        "timestamp": "2025-12-19T18:58:40.326321+00:00",
        "meta_object_name": "STARLINK-35936",
        "meta_object_id": "2025-271D",
        "meta_epoch": "2025-12-18T20:26:38.659776",
        "meta_mean_motion": 15.49341209,
        "meta_eccentricity": 0.0001202,
        "meta_inclination": 53.1598,
        "meta_ra_of_asc_node": 158.0059,
        "meta_arg_of_pericenter": 74.9181,
        "meta_mean_anomaly": 285.1961,
        "meta_ephemeris_type": 0,
        "meta_classification_type": "U",
        "meta_norad_cat_id": 66620,
        "meta_element_set_no": 999,
        "meta_rev_at_epoch": 515,
        "meta_bstar": 0.00062165334,
        "meta_mean_motion_dot": 0.00034317,
        "meta_mean_motion_ddot": 0,
        "tle_line1": "1 66620U 25271D   25352.85183634  .00034317  00000+0  62165-3 0  9992",
        "tle_line2": "2 66620  53.1598 158.0059 0001202  74.9181 285.1961 15.49341209  5157"
      },
      "geometry": {
        "type": "Point",
        "coordinates": [
          -14.043635689637055,
          -16.032665586359716
        ]
      }
    },
    {
      "type": "Feature",
      "properties": {
        "norad_id": 66621,
        "name": "STARLINK-35847",
        "group": "last-30-days",
        "lat": -50.560316127623295,
        "lon": 39.10746066215137,
        "alt_km": 424.19741906210584,
        "timestamp": "2025-12-19T18:58:40.326332+00:00",
        "meta_object_name": "STARLINK-35847",
        "meta_object_id": "2025-271E",
        "meta_epoch": "2025-12-19T07:02:43.202976",
        "meta_mean_motion": 15.49312278,
        "meta_eccentricity": 0.00013401,
        "meta_inclination": 53.1591,
        "meta_ra_of_asc_node": 155.7767,
        "meta_arg_of_pericenter": 58.27,
        "meta_mean_anomaly": 301.844,
        "meta_ephemeris_type": 0,
        "meta_classification_type": "U",
        "meta_norad_cat_id": 66621,
        "meta_element_set_no": 999,
        "meta_rev_at_epoch": 522,
        "meta_bstar": 0.0010412406,
        "meta_mean_motion_dot": 0.00057898,
        "meta_mean_motion_ddot": 0,
        "tle_line1": "1 66621U 25271E   25353.29355559  .00057898  00000+0  10412-2 0  9995",
        "tle_line2": "2 66621  53.1591 155.7767 0001340  58.2700 301.8440 15.49312278  5226"
      },
      "geometry": {
        "type": "Point",
        "coordinates": [
          39.10746066215137,
          -50.560316127623295
        ]
      }
    },
    {
      "type": "Feature",
      "properties": {
        "norad_id": 66622,
        "name": "STARLINK-35950",
        "group": "last-30-days",
        "lat": 37.41846363338183,
        "lon": -61.34913920771236,
        "alt_km": 441.7056664025513,
        "timestamp": "2025-12-19T18:58:40.326344+00:00",
        "meta_object_name": "STARLINK-35950",
        "meta_object_id": "2025-271F",
        "meta_epoch": "2025-12-19T08:00:01.999872",
        "meta_mean_motion": 15.39586801,
        "meta_eccentricity": 0.00011235,
        "meta_inclination": 53.1598,
        "meta_ra_of_asc_node": 155.8075,
        "meta_arg_of_pericenter": 94.1418,
        "meta_mean_anomaly": 19.8194,
        "meta_ephemeris_type": 0,
        "meta_classification_type": "U",
        "meta_norad_cat_id": 66622,
        "meta_element_set_no": 999,
        "meta_rev_at_epoch": 530,
        "meta_bstar": 0.0015523032,
        "meta_mean_motion_dot": 0.00062131,
        "meta_mean_motion_ddot": 0,
        "tle_line1": "1 66622U 25271F   25353.33335648  .00062131  00000+0  15523-2 0  9992",
        "tle_line2": "2 66622  53.1598 155.8075 0001123  94.1418  19.8194 15.39586801  5306"
      },
      "geometry": {
        "type": "Point",
        "coordinates": [
          -61.34913920771236,
          37.41846363338183
        ]
      }
    },
    {
      "type": "Feature",
      "properties": {
        "norad_id": 66623,
        "name": "STARLINK-35920",
        "group": "last-30-days",
        "lat": 51.75605306885741,
        "lon": -134.21921740085102,
        "alt_km": 439.57650230197396,
        "timestamp": "2025-12-19T18:58:40.326355+00:00",
        "meta_object_name": "STARLINK-35920",
        "meta_object_id": "2025-271G",
        "meta_epoch": "2025-12-19T08:00:01.999872",
        "meta_mean_motion": 15.39579093,
        "meta_eccentricity": 0.00010311,
        "meta_inclination": 53.1602,
        "meta_ra_of_asc_node": 155.908,
        "meta_arg_of_pericenter": 102.0727,
        "meta_mean_anomaly": 320.3924,
        "meta_ephemeris_type": 0,
        "meta_classification_type": "U",
        "meta_norad_cat_id": 66623,
        "meta_element_set_no": 999,
        "meta_rev_at_epoch": 530,
        "meta_bstar": 0.0016781654,
        "meta_mean_motion_dot": 0.00067229,
        "meta_mean_motion_ddot": 0,
        "tle_line1": "1 66623U 25271G   25353.33335648  .00067229  00000+0  16782-2 0  9994",
        "tle_line2": "2 66623  53.1602 155.9080 0001031 102.0727 320.3924 15.39579093  5306"
      },
      "geometry": {
        "type": "Point",
        "coordinates": [
          -134.21921740085102,
          51.75605306885741
        ]
      }
    },
    {
      "type": "Feature",
      "properties": {
        "norad_id": 66624,
        "name": "STARLINK-35927",
        "group": "last-30-days",
        "lat": -23.314512256587445,
        "lon": -7.653455299759048,
        "alt_km": 422.25654055414543,
        "timestamp": "2025-12-19T18:58:40.326368+00:00",
        "meta_object_name": "STARLINK-35927",
        "meta_object_id": "2025-271H",
        "meta_epoch": "2025-12-19T04:08:38.001120",
        "meta_mean_motion": 15.49319898,
        "meta_eccentricity": 0.00011872,
        "meta_inclination": 53.1596,
        "meta_ra_of_asc_node": 156.4518,
        "meta_arg_of_pericenter": 87.9629,
        "meta_mean_anomaly": 272.1516,
        "meta_ephemeris_type": 0,
        "meta_classification_type": "U",
        "meta_norad_cat_id": 66624,
        "meta_element_set_no": 999,
        "meta_rev_at_epoch": 520,
        "meta_bstar": 0.0010655885,
        "meta_mean_motion_dot": 0.00059289,
        "meta_mean_motion_ddot": 0,
        "tle_line1": "1 66624U 25271H   25353.17266205  .00059289  00000+0  10656-2 0  9990",
        "tle_line2": "2 66624  53.1596 156.4518 0001187  87.9629 272.1516 15.49319898  5201"
      },
      "geometry": {
        "type": "Point",
        "coordinates": [
          -7.653455299759048,
          -23.314512256587445
        ]
      }
    }
  ]
}